[{"OBJECT_NAME":"STARLINK-35186","OBJECT_ID":"2025-207V","EPOCH":"2026-03-09T17:36:36.958176","MEAN_MOTION":15.05644925,"ECCENTRICITY":3.438e-5,"INCLINATION":97.6037,"RA_OF_ASC_NODE":138.6399,"ARG_OF_PERICENTER":92.9692,"MEAN_ANOMALY":267.1574,"EPHEMERIS_TYPE":0,"CLASSIFICATION_TYPE":"U","NORAD_CAT_ID":65611,"ELEMENT_SET_NO":999,"REV_AT_EPOCH":2826,"BSTAR":0.00015310109,"MEAN_MOTION_DOT":2.149e-5,"MEAN_MOTION_DDOT":0},{"OBJECT_NAME":"BREEZE-M DEB [TANK]","OBJECT_ID":"2012-016B","EPOCH":"2026-03-08T09:23:05.831808","MEAN_MOTION":5.60404667,"ECCENTRICITY":0.49919025,"INCLINATION":49.6074,"RA_OF_ASC_NODE":353.4434,"ARG_OF_PERICENTER":288.4969,"MEAN_ANOMALY":24.9742,"EPHEMERIS_TYPE":0,"CLASSIFICATION_TYPE":"U","NORAD_CAT_ID":38246,"ELEMENT_SET_NO":999,"REV_AT_EPOCH":27546,"BSTAR":0.00073200003,"MEAN_MOTION_DOT":2.976e-5,"MEAN_MOTION_DDOT":0}]
